NORAD_CAT_ID,OBJECT_NAME,OBJECT_TYPE,EPOCH,MEAN_MOTION,ECCENTRICITY,INCLINATION,RA_OF_ASC_NODE,ARG_OF_PERICENTER,MEAN_ANOMALY,BSTAR,MEAN_MOTION_DOT,MEAN_MOTION_DDOT,TLE_LINE0,TLE_LINE1,TLE_LINE2,SEMIMAJOR_AXIS,PERIOD,APOGEE,PERIGEE,DECAYED
52632.0,STARLINK-3995,PAYLOAD,2022-05-20 16:00:00,15.80430585,0.0001094,53.2167,50.8397,81.5643,323.4313,-0.0042248,-0.00750204,0.0,0 STARLINK-3995,1 52632U 22052AL  22140.66667824 -.00750204  00000-0 -42248-2 0  9995,2 52632  53.2167  50.8397 0001094  81.5643 323.4313 15.80430585  1309,6707.359,91.114,329.958,328.49,0.0
52632.0,STARLINK-3995,PAYLOAD,2022-05-21 20:00:01,15.78322686,0.0001200999999999,53.2178,45.0129,91.8504,110.4956,-0.0055133,-0.00875767,0.0,0 STARLINK-3995,1 52632U 22052AL  22141.83334491 -.00875767  00000-0 -55133-2 0  9995,2 52632  53.2178  45.0129 0001201  91.8504 110.4956 15.78322686  1485,6713.33,91.236,336.001,334.3880000000001,0.0
52632.0,STARLINK-3995,PAYLOAD,2022-05-21 22:00:00,15.78166031,0.0001063,53.2176,44.5981,93.6984,222.3924,-0.0055626999999999,-0.00877164,0.0,0 STARLINK-3995,1 52632U 22052AL  22141.91667824 -.00877164  00000-0 -55627-2 0  9994,2 52632  53.2176  44.5981 0001063  93.6984 222.3924 15.78166031  1300,6713.774,91.245,336.353,334.925,0.0
52632.0,STARLINK-3995,PAYLOAD,2022-05-22 14:00:01,15.76905911,0.0001093,53.2171,41.2763,94.0821,50.2712,-0.0058656,-0.00874228,0.0,0 STARLINK-3995,1 52632U 22052AL  22142.58334491 -.00874228  00000-0 -58656-2 0  9992,2 52632  53.2171  41.2763 0001093  94.0821  50.2712 15.76905911  1304,6717.35,91.318,339.949,338.481,0.0
52632.0,STARLINK-3995,PAYLOAD,2022-05-22 20:00:01,15.76434813,0.0001094,53.2174,40.0336,83.537,40.6338,-0.006,-0.00875509,0.0,0 STARLINK-3995,1 52632U 22052AL  22142.83334491 -.00875509  00000-0 -60000-2 0  9999,2 52632  53.2174  40.0336 0001094  83.5370  40.6338 15.76434813  1645,6718.688,91.345,341.288,339.8180000000001,0.0
52632.0,STARLINK-3995,PAYLOAD,2022-05-22 22:00:01,15.76275588,0.0001179,53.2174,39.6199,88.6789,148.7361,-0.0060202,-0.0087259,0.0,0 STARLINK-3995,1 52632U 22052AL  22142.91668981 -.00872590  00000-0 -60202-2 0  9993,2 52632  53.2174  39.6199 0001179  88.6789 148.7361 15.76275588  1301,6719.141,91.355,341.798,340.214,0.0
52632.0,STARLINK-3995,PAYLOAD,2022-05-23 14:00:01,15.75017635,0.0001019,53.2173,36.3074,111.2076,309.8665,-0.0063743,-0.00873749,0.0,0 STARLINK-3995,1 52632U 22052AL  22143.58334491 -.00873749  00000-0 -63743-2 0  9993,2 52632  53.2173  36.3074 0001019 111.2076 309.8665 15.75017635  1304,6722.718000000003,91.428,345.26800000000014,343.898,0.0
52632.0,STARLINK-3995,PAYLOAD,2022-05-23 20:00:01,15.74547805,9.83e-05,53.2177,35.0684,100.3509,298.8388,-0.006528,-0.00876284,0.0,0 STARLINK-3995,1 52632U 22052AL  22143.83334491 -.00876284  00000-0 -65280-2 0  9996,2 52632  53.2177  35.0684 0000983 100.3509 298.8388 15.74547805  1800,6724.055,91.455,346.581,345.259,0.0
52632.0,STARLINK-3995,PAYLOAD,2022-05-23 22:00:01,15.74387785,0.0001145,53.2174,34.6557,91.8807,59.986,-0.0065407,-0.00872341,0.0,0 STARLINK-3995,1 52632U 22052AL  22143.91668981 -.00872341  00000-0 -65407-2 0  9990,2 52632  53.2174  34.6557 0001145  91.8807  59.9860 15.74387785  1302,6724.511,91.464,347.146,345.606,0.0
52632.0,STARLINK-3995,PAYLOAD,2022-05-24 12:00:00,15.73210082,0.0001128,53.2174,31.7649,105.5626,113.1985,-6.8389e-05,-0.0001021,0.0,0 STARLINK-3995,1 52632U 22052AL  22144.50001157 -.00010210  00000-0 -68389-4 0  9995,2 52632  53.2174  31.7649 0001128 105.5626 113.1985 15.73210082  1906,6727.866,91.533,350.49,348.973,0.0
52632.0,STARLINK-3995,PAYLOAD,2022-05-24 14:00:01,15.73202931,0.0001175,53.2172,31.3523,110.9044,220.0936,1.2923e-05,1.194e-05,0.0,0 STARLINK-3995,1 52632U 22052AL  22144.58334491  .00001194  00000-0  12923-4 0  9995,2 52632  53.2172  31.3523 0001175 110.9044 220.0936 15.73202931  1309,6727.887,91.533,350.542,348.961,0.0
52632.0,STARLINK-3995,PAYLOAD,2022-05-24 20:00:01,15.73267215,0.0001213,53.2148,30.1197,116.3888,191.4831,-0.00011145,-0.00016276,0.0,0 STARLINK-3995,1 52632U 22052AL  22144.83335648 -.00016276  00000-0 -11145-3 0  9991,2 52632  53.2148  30.1197 0001213 116.3888 191.4831 15.73267215  1957,6727.704000000002,91.529,350.385,348.75199999999984,0.0
52632.0,STARLINK-3995,PAYLOAD,2022-05-24 22:00:00,15.73264282,0.0001175,53.2149,29.7083,110.141,309.9178,-0.00013983,-0.00020251,0.0,0 STARLINK-3995,1 52632U 22052AL  22144.91667824 -.00020251  00000-0 -13983-3 0  9994,2 52632  53.2149  29.7083 0001175 110.1410 309.9178 15.73264282  1306,6727.712,91.529,350.367,348.786,0.0
52632.0,STARLINK-3995,PAYLOAD,2022-05-25 12:00:00,15.7317866,0.0001073,53.2148,26.8198,122.7631,3.0384,-0.00019225,-0.00027487,0.0,0 STARLINK-3995,1 52632U 22052AL  22145.50001157 -.00027487  00000-0 -19225-3 0  9994,2 52632  53.2148  26.8198 0001073 122.7631   3.0384 15.73178660  2060,6727.956,91.534,350.543,349.099,0.0
52632.0,STARLINK-3995,PAYLOAD,2022-05-25 14:00:01,15.73164404,0.0001105,53.2147,26.407,122.9358,115.0954,-8.2361e-05,-0.00012143,0.0,0 STARLINK-3995,1 52632U 22052AL  22145.58334491 -.00012143  00000-0 -82361-4 0  9997,2 52632  53.2147  26.4070 0001105 122.9358 115.0954 15.73164404  1302,6727.996999999999,91.535,350.605,349.11800000000005,0.0
52632.0,STARLINK-3995,PAYLOAD,2022-05-25 20:36:57,15.73240283,9.26e-05,53.2148,25.04300000000001,153.1394,206.9674,0.00017526,0.00024089,0.0,0 STARLINK-3995,1 52632U 22052AL  22145.85900189  .00024089  00000-0  17526-3 0  9990,2 52632  53.2148  25.0430 0000926 153.1394 206.9674 15.73240283  1752,6727.78,91.531,350.26800000000014,349.022,0.0
52632.0,STARLINK-3995,PAYLOAD,2022-05-26 04:00:00,15.73134989,9.56e-05,53.2143,23.5229,108.8662,194.7252,0.00064039,0.0008997,0.0,0 STARLINK-3995,1 52632U 22052AL  22146.16667824  .00089970  00000-0  64039-3 0  9992,2 52632  53.2143  23.5229 0000956 108.8662 194.7252 15.73134989  2161,6728.081,91.537,350.589,349.302,0.0
52632.0,STARLINK-3995,PAYLOAD,2022-05-26 08:48:49,15.73159719,0.0001196,53.2153,22.5276,122.9047,237.2088,0.00012202,0.00016509,0.0,0 STARLINK-3995,1 52632U 22052AL  22146.36724138  .00016509  00000-0  12202-3 0  9999,2 52632  53.2153  22.5276 0001196 122.9047 237.2088 15.73159719  1835,6728.01,91.536,350.68,349.07,0.0
52632.0,STARLINK-3995,PAYLOAD,2022-05-26 12:00:00,15.73163671,0.0001118,53.2143,21.8713,123.1024,269.3745,0.00052982,0.0007428,0.0,0 STARLINK-3995,1 52632U 22052AL  22146.50001157  .00074280  00000-0  52982-3 0  9993,2 52632  53.2143  21.8713 0001118 123.1024 269.3745 15.73163671  2226,6727.999,91.535,350.616,349.112,0.0
52632.0,STARLINK-3995,PAYLOAD,2022-05-26 22:00:00,15.73231084,8.46e-05,53.2145,19.8113,121.6645,112.0004,-0.00018205,-0.00026122,0.0,0 STARLINK-3995,1 52632U 22052AL  22146.91667824 -.00026122  00000-0 -18205-3 0  9991,2 52632  53.2145  19.8113 0000846 121.6645 112.0004 15.73231084  1302,6727.807,91.531,350.241,349.102,0.0
52632.0,STARLINK-3995,PAYLOAD,2022-05-27 04:00:00,15.73228628,6.879999999999999e-05,53.2142,18.5744,124.2729,86.1014,8.2151e-06,5.35e-06,0.0,0 STARLINK-3995,1 52632U 22052AL  22147.16667824  .00000535  00000-0  82151-5 0  9990,2 52632  53.2142  18.5744 0000688 124.2729  86.1014 15.73228628  2326,6727.814,91.532,350.141,349.216,0.0
52632.0,STARLINK-3995,PAYLOAD,2022-05-27 14:00:01,15.73195512,0.0001038,53.2149,16.51,124.846,286.7243,0.00021494,0.00029646,0.0,0 STARLINK-3995,1 52632U 22052AL  22147.58334491  .00029646  00000-0  21494-3 0  9992,2 52632  53.2149  16.5100 0001038 124.8460 286.7243 15.73195512  1309,6727.908,91.533,350.471,349.075,0.0
52632.0,STARLINK-3995,PAYLOAD,2022-05-27 22:00:01,15.73189051,0.0001042,53.2147,14.8624,109.398,31.1949,0.00013961,0.00019009,0.0,0 STARLINK-3995,1 52632U 22052AL  22147.91668981  .00019009  00000-0  13961-3 0  9995,2 52632  53.2147  14.8624 0001042 109.3980  31.1949 15.73189051  1305,6727.926,91.534,350.492,349.09,0.0
52632.0,STARLINK-3995,PAYLOAD,2022-05-28 04:00:00,15.72827208,0.0001203,53.2164,13.6221,128.3089,348.9417,0.0039887,0.0059099,0.0,0 STARLINK-3995,1 52632U 22052AL  22148.16667824  .00590990  00000-0  39887-2 0  9995,2 52632  53.2164  13.6221 0001203 128.3089 348.9417 15.72827208  2485,6728.958000000001,91.555,351.6330000000001,350.014,0.0
52632.0,STARLINK-3995,PAYLOAD,2022-05-28 12:00:00,15.73201378,0.000131,53.2142,11.9737,117.1203,89.0868,0.00023501,0.00032492,0.0,0 STARLINK-3995,1 52632U 22052AL  22148.50001157  .00032492  00000-0  23501-3 0  9999,2 52632  53.2142  11.9737 0001310 117.1203  89.0868 15.73201378  2531,6727.891,91.533,350.63800000000015,348.875,0.0
52632.0,STARLINK-3995,PAYLOAD,2022-05-28 14:00:01,15.73223125,0.000139,53.2144,11.5613,116.4963,201.9392,-5.2594e-05,-8.002e-05,0.0,0 STARLINK-3995,1 52632U 22052AL  22148.58334491 -.00008002  00000-0 -52594-4 0  9994,2 52632  53.2144  11.5613 0001390 116.4963 201.9392 15.73223125  1300,6727.829000000002,91.532,350.629,348.759,0.0
52632.0,STARLINK-3995,PAYLOAD,2022-05-28 21:48:00,15.73225103,0.0001659,53.2155,9.9544,120.2805,239.838,3.0079e-05,3.607e-05,0.0,0 STARLINK-3995,1 52632U 22052AL  22148.90833472  .00003607  00000-0  30079-4 0  9991,2 52632  53.2155   9.9544 0001659 120.2805 239.8380 15.73225103  2230,6727.824000000001,91.532,350.805,348.57199999999995,0.0
52632.0,STARLINK-3995,PAYLOAD,2022-05-29 04:00:00,15.73254269,0.0001188,53.214,8.6765,105.4215,278.6731,-0.00052824,-0.00074274,0.0,0 STARLINK-3995,1 52632U 22052AL  22149.16667824 -.00074274  00000-0 -52824-3 0  9997,2 52632  53.2140   8.6765 0001188 105.4215 278.6731 15.73254269  2632,6727.74,91.53,350.405,348.806,0.0
52632.0,STARLINK-3995,PAYLOAD,2022-05-29 14:00:01,15.73185322,0.0001402,53.2147,6.6124,113.928,111.3439,-0.00065967,-0.00092136,0.0,0 STARLINK-3995,1 52632U 22052AL  22149.58334491 -.00092136  00000-0 -65967-3 0  9993,2 52632  53.2147   6.6124 0001402 113.9280 111.3439 15.73185322  1305,6727.937,91.534,350.745,348.8590000000001,0.0
